[
    {
        "Altitude(m)": 607895.8320883078,
        "Argument of Periapsis(deg)": 0.0,
        "Eccentricity": 0.0,
        "Inclination(deg)": 60.0,
        "Latitude(deg)": 40.9983794186731,
        "Longitude(deg)": 25.0885628967553,
        "Mean Anomaly(deg)": -229.09089999999995,
        "RAAN(deg)": 335.0,
        "Satellite Name": "Test1 1482",
        "Satellite Number": 1482,
        "Semi-Major Axis(m)": 6980739.136638005,
        "Time(s)": 0
    },
    {
        "Altitude(m)": 607795.1452008501,
        "Argument of Periapsis(deg)": 0.00010418945913296404,
        "Eccentricity": 0.0,
        "Inclination(deg)": 60.0,
        "Latitude(deg)": 40.5307045103139,
        "Longitude(deg)": 25.585158381475463,
        "Mean Anomaly(deg)": -228.4707938545382,
        "RAAN(deg)": 334.99957995086027,
        "Satellite Name": "Test1 1482",
        "Satellite Number": 1482,
        "Semi-Major Axis(m)": 6980739.136638005,
        "Time(s)": 10
    },
    {
        "Altitude(m)": 607694.6338518609,
        "Argument of Periapsis(deg)": 0.0002083789182659281,
        "Eccentricity": 0.0,
        "Inclination(deg)": 60.0,
        "Latitude(deg)": 40.06051963576708,
        "Longitude(deg)": 26.0743129777235,
        "Mean Anomaly(deg)": -227.85068770907634,
        "RAAN(deg)": 334.99915990172053,
        "Satellite Name": "Test1 1482",
        "Satellite Number": 1482,
        "Semi-Major Axis(m)": 6980739.136638005,
        "Time(s)": 20
    },
    {
        "Altitude(m)": 607594.3617399567,
        "Argument of Periapsis(deg)": 0.00031256837739889213,
        "Eccentricity": 0.0,
        "Inclination(deg)": 60.0,
        "Latitude(deg)": 39.587898369136724,
        "Longitude(deg)": 26.556212291194107,
        "Mean Anomaly(deg)": -227.23058156361452,
        "RAAN(deg)": 334.9987398525808,
        "Satellite Name": "Test1 1482",
        "Satellite Number": 1482,
        "Semi-Major Axis(m)": 6980739.136638005,
        "Time(s)": 30
    },
    {
        "Altitude(m)": 607494.392664102,
        "Argument of Periapsis(deg)": 0.0004167578365318562,
        "Eccentricity": 0.0,
        "Inclination(deg)": 60.0,
        "Latitude(deg)": 39.11291204436134,
        "Longitude(deg)": 27.031038887701886,
        "Mean Anomaly(deg)": -226.61047541815267,
        "RAAN(deg)": 334.99831980344106,
        "Satellite Name": "Test1 1482",
        "Satellite Number": 1482,
        "Semi-Major Axis(m)": 6980739.136638005,
        "Time(s)": 40
    },
    {
        "Altitude(m)": 607394.7904917337,
        "Argument of Periapsis(deg)": 0.0005209472956648203,
        "Eccentricity": 0.0,
        "Inclination(deg)": 60.0,
        "Latitude(deg)": 38.635629828572476,
        "Longitude(deg)": 27.49897127273112,
        "Mean Anomaly(deg)": -225.99036927269083,
        "RAAN(deg)": 334.9978997543013,
        "Satellite Name": "Test1 1482",
        "Satellite Number": 1482,
        "Semi-Major Axis(m)": 6980739.136638005,
        "Time(s)": 50
    },
    {
        "Altitude(m)": 607295.6191267468,
        "Argument of Periapsis(deg)": 0.0006251367547977843,
        "Eccentricity": 0.0,
        "Inclination(deg)": 60.0,
        "Latitude(deg)": 38.15611879391585,
        "Longitude(deg)": 27.9601843946772,
        "Mean Anomaly(deg)": -225.37026312722898,
        "RAAN(deg)": 334.99747970516154,
        "Satellite Name": "Test1 1482",
        "Satellite Number": 1482,
        "Semi-Major Axis(m)": 6980739.136638005,
        "Time(s)": 60
    },
    {
        "Altitude(m)": 607196.9424774321,
        "Argument of Periapsis(deg)": 0.0007293262139307483,
        "Eccentricity": 0.0,
        "Inclination(deg)": 60.0,
        "Latitude(deg)": 37.67444398776523,
        "Longitude(deg)": 28.414850157773117,
        "Mean Anomaly(deg)": -224.7501569817672,
        "RAAN(deg)": 334.9970596560218,
        "Satellite Name": "Test1 1482",
        "Satellite Number": 1482,
        "Semi-Major Axis(m)": 6980739.136638005,
        "Time(s)": 70
    },
    {
        "Altitude(m)": 607098.8244243584,
        "Argument of Periapsis(deg)": 0.0008335156730637124,
        "Eccentricity": 0.0,
        "Inclination(deg)": 60.0,
        "Latitude(deg)": 37.190668501272604,
        "Longitude(deg)": 28.863136430780852,
        "Mean Anomaly(deg)": -224.13005083630534,
        "RAAN(deg)": 334.99663960688207,
        "Satellite Name": "Test1 1482",
        "Satellite Number": 1482,
        "Semi-Major Axis(m)": 6980739.136638005,
        "Time(s)": 80
    },
    {
        "Altitude(m)": 607001.3287882183,
        "Argument of Periapsis(deg)": 0.0009377051321966765,
        "Eccentricity": 0.0,
        "Inclination(deg)": 60.0,
        "Latitude(deg)": 36.70485353622182,
        "Longitude(deg)": 29.305207576233972,
        "Mean Anomaly(deg)": -223.50994469084358,
        "RAAN(deg)": 334.99621955774234,
        "Satellite Name": "Test1 1482",
        "Satellite Number": 1482,
        "Semi-Major Axis(m)": 6980739.136638005,
        "Time(s)": 90
    },
    {
        "Altitude(m)": 606904.5192976267,
        "Argument of Periapsis(deg)": 0.0010418945913296407,
        "Eccentricity": 0.0,
        "Inclination(deg)": 60.0,
        "Latitude(deg)": 36.217058470153184,
        "Longitude(deg)": 29.741224986476265,
        "Mean Anomaly(deg)": -222.88983854538174,
        "RAAN(deg)": 334.9957995086026,
        "Satellite Name": "Test1 1482",
        "Satellite Number": 1482,
        "Semi-Major Axis(m)": 6980739.136638005,
        "Time(s)": 100
    },
    {
        "Altitude(m)": 606808.4595569543,
        "Argument of Periapsis(deg)": 0.0011460840504626045,
        "Eccentricity": 0.0,
        "Inclination(deg)": 60.0,
        "Latitude(deg)": 35.72734091974198,
        "Longitude(deg)": 30.171346112810284,
        "Mean Anomaly(deg)": -222.26973239991992,
        "RAAN(deg)": 334.99537945946287,
        "Satellite Name": "Test1 1482",
        "Satellite Number": 1482,
        "Semi-Major Axis(m)": 6980739.136638005,
        "Time(s)": 110
    },
    {
        "Altitude(m)": 606713.2130141112,
        "Argument of Periapsis(deg)": 0.0012502735095955685,
        "Eccentricity": 0.0,
        "Inclination(deg)": 60.0,
        "Latitude(deg)": 35.23575680242474,
        "Longitude(deg)": 30.595725012767293,
        "Mean Anomaly(deg)": -221.64962625445807,
        "RAAN(deg)": 334.99495941032313,
        "Satellite Name": "Test1 1482",
        "Satellite Number": 1482,
        "Semi-Major Axis(m)": 6980739.136638005,
        "Time(s)": 120
    },
    {
        "Altitude(m)": 606618.842928396,
        "Argument of Periapsis(deg)": 0.0013544629687285324,
        "Eccentricity": 0.0,
        "Inclination(deg)": 60.0,
        "Latitude(deg)": 34.74236039627366,
        "Longitude(deg)": 31.014512901945388,
        "Mean Anomaly(deg)": -221.0295201089962,
        "RAAN(deg)": 334.99453936118334,
        "Satellite Name": "Test1 1482",
        "Satellite Number": 1482,
        "Semi-Major Axis(m)": 6980739.136638005,
        "Time(s)": 130
    },
    {
        "Altitude(m)": 606525.4123383651,
        "Argument of Periapsis(deg)": 0.0014586524278614966,
        "Eccentricity": 0.0,
        "Inclination(deg)": 60.0,
        "Latitude(deg)": 34.24720439812106,
        "Longitude(deg)": 31.42785719692853,
        "Mean Anomaly(deg)": -220.40941396353435,
        "RAAN(deg)": 334.9941193120436,
        "Satellite Name": "Test1 1482",
        "Satellite Number": 1482,
        "Semi-Major Axis(m)": 6980739.136638005,
        "Time(s)": 140
    },
    {
        "Altitude(m)": 606432.9840297519,
        "Argument of Periapsis(deg)": 0.0015628418869944607,
        "Eccentricity": 0.0,
        "Inclination(deg)": 60.0,
        "Latitude(deg)": 33.75033997995403,
        "Longitude(deg)": 31.83590207447152,
        "Mean Anomaly(deg)": -219.78930781807256,
        "RAAN(deg)": 334.99369926290393,
        "Satellite Name": "Test1 1482",
        "Satellite Number": 1482,
        "Semi-Major Axis(m)": 6980739.136638005,
        "Time(s)": 150
    },
    {
        "Altitude(m)": 606341.6205034794,
        "Argument of Periapsis(deg)": 0.0016670313461274247,
        "Eccentricity": 0.0,
        "Inclination(deg)": 60.0,
        "Latitude(deg)": 33.251816843593694,
        "Longitude(deg)": 32.238789033570136,
        "Mean Anomaly(deg)": -219.1692016726107,
        "RAAN(deg)": 334.99327921376414,
        "Satellite Name": "Test1 1482",
        "Satellite Number": 1482,
        "Semi-Major Axis(m)": 6980739.136638005,
        "Time(s)": 160
    },
    {
        "Altitude(m)": 606251.3839437162,
        "Argument of Periapsis(deg)": 0.0017712208052603888,
        "Eccentricity": 0.0,
        "Inclination(deg)": 60.0,
        "Latitude(deg)": 32.7516832736806,
        "Longitude(deg)": 32.63665594707934,
        "Mean Anomaly(deg)": -218.54909552714886,
        "RAAN(deg)": 334.9928591646244,
        "Satellite Name": "Test1 1482",
        "Satellite Number": 1482,
        "Semi-Major Axis(m)": 6980739.136638005,
        "Time(s)": 170
    },
    {
        "Altitude(m)": 606162.3361860747,
        "Argument of Periapsis(deg)": 0.001875410264393353,
        "Eccentricity": 0.0,
        "Inclination(deg)": 60.0,
        "Latitude(deg)": 32.24998618899667,
        "Longitude(deg)": 33.0296376282114,
        "Mean Anomaly(deg)": -217.92898938168702,
        "RAAN(deg)": 334.9924391154847,
        "Satellite Name": "Test1 1482",
        "Satellite Number": 1482,
        "Semi-Major Axis(m)": 6980739.136638005,
        "Time(s)": 180
    },
    {
        "Altitude(m)": 606074.5386858988,
        "Argument of Periapsis(deg)": 0.0019795997235263173,
        "Eccentricity": 0.0,
        "Inclination(deg)": 60.0,
        "Latitude(deg)": 31.746771192152863,
        "Longitude(deg)": 33.41786639866308,
        "Mean Anomaly(deg)": -217.3088832362252,
        "RAAN(deg)": 334.99201906634494,
        "Satellite Name": "Test1 1482",
        "Satellite Number": 1482,
        "Semi-Major Axis(m)": 6980739.136638005,
        "Time(s)": 190
    }
]